{"fetched_at":"2026-07-19T17:32:02.719Z","source":"https://celestrak.org/NORAD/elements/gp.php?NAME=UMBRA&FORMAT=JSON","constellation":"umbra","records":[{"OBJECT_NAME":"UMBRA-07","OBJECT_ID":"2023-174AT","EPOCH":"2026-07-19T02:59:57.445152","CLASSIFICATION_TYPE":"U","MEAN_MOTION":15.09655555,"ECCENTRICITY":0.00018586,"INCLINATION":97.3769,"RA_OF_ASC_NODE":254.6868,"ARG_OF_PERICENTER":3.9679,"MEAN_ANOMALY":356.1565,"EPHEMERIS_TYPE":0,"NORAD_CAT_ID":58297,"ELEMENT_SET_NO":999,"REV_AT_EPOCH":14823,"BSTAR":0.00025398369,"MEAN_MOTION_DOT":0.00004027,"MEAN_MOTION_DDOT":0},{"OBJECT_NAME":"UMBRA-09","OBJECT_ID":"2024-149CB","EPOCH":"2026-07-19T05:23:16.883808","CLASSIFICATION_TYPE":"U","MEAN_MOTION":15.18920728,"ECCENTRICITY":0.00020564,"INCLINATION":97.6964,"RA_OF_ASC_NODE":287.9994,"ARG_OF_PERICENTER":195.3476,"MEAN_ANOMALY":164.7696,"EPHEMERIS_TYPE":0,"NORAD_CAT_ID":60541,"ELEMENT_SET_NO":999,"REV_AT_EPOCH":10558,"BSTAR":0.00040632256,"MEAN_MOTION_DOT":0.00008415,"MEAN_MOTION_DDOT":0},{"OBJECT_NAME":"UMBRA-10","OBJECT_ID":"2024-149CH","EPOCH":"2026-07-19T05:22:37.596864","CLASSIFICATION_TYPE":"U","MEAN_MOTION":15.18918547,"ECCENTRICITY":0.00019364,"INCLINATION":97.6968,"RA_OF_ASC_NODE":288.0294,"ARG_OF_PERICENTER":159.0759,"MEAN_ANOMALY":201.0554,"EPHEMERIS_TYPE":0,"NORAD_CAT_ID":60547,"ELEMENT_SET_NO":999,"REV_AT_EPOCH":10559,"BSTAR":0.00036720996,"MEAN_MOTION_DOT":0.00007597,"MEAN_MOTION_DDOT":0},{"OBJECT_NAME":"UMBRA-11","OBJECT_ID":"2025-276CL","EPOCH":"2026-07-19T07:02:52.180800","CLASSIFICATION_TYPE":"U","MEAN_MOTION":15.27874013,"ECCENTRICITY":0.00029927,"INCLINATION":97.4177,"RA_OF_ASC_NODE":274.7501,"ARG_OF_PERICENTER":174.5199,"MEAN_ANOMALY":185.6073,"EPHEMERIS_TYPE":0,"NORAD_CAT_ID":66748,"ELEMENT_SET_NO":999,"REV_AT_EPOCH":3539,"BSTAR":0.00041000466,"MEAN_MOTION_DOT":0.00011089,"MEAN_MOTION_DDOT":0},{"OBJECT_NAME":"UMBRA-12","OBJECT_ID":"2026-004J","EPOCH":"2026-07-18T22:49:03.972288","CLASSIFICATION_TYPE":"U","MEAN_MOTION":14.89549993,"ECCENTRICITY":0.00071628,"INCLINATION":97.8029,"RA_OF_ASC_NODE":198.2866,"ARG_OF_PERICENTER":42.9364,"MEAN_ANOMALY":317.2411,"EPHEMERIS_TYPE":0,"NORAD_CAT_ID":67371,"ELEMENT_SET_NO":999,"REV_AT_EPOCH":2803,"BSTAR":0.00025983772,"MEAN_MOTION_DOT":0.00002423,"MEAN_MOTION_DDOT":0}]}
