UMBRA-07                
1 58297U 23174AT  26200.12497043  .00004027  00000+0  25398-3 0  9990
2 58297  97.3769 254.6868 0001858   3.9679 356.1565 15.09655555148234
UMBRA-09                
1 60541U 24149CB  26200.22450097  .00008415  00000+0  40632-3 0  9990
2 60541  97.6964 287.9994 0002056 195.3476 164.7696 15.18920728105586
UMBRA-10                
1 60547U 24149CH  26200.22404626  .00007597  00000+0  36721-3 0  9997
2 60547  97.6968 288.0294 0001936 159.0759 201.0554 15.18918547105593
UMBRA-11                
1 66748U 25276CL  26200.29365950  .00011089  00000+0  41000-3 0  9998
2 66748  97.4177 274.7501 0002992 174.5199 185.6073 15.27874013 35390
UMBRA-12                
1 67371U 26004J   26199.95074042  .00002423  00000+0  25984-3 0  9995
2 67371  97.8029 198.2866 0007162  42.9364 317.2411 14.89549993 28038
